LEMUR-2-VALHALLA        
1 58900U 24022B   26189.51761269  .00012113  00000+0  30170-3 0  9996
2 58900  97.4095  39.7731 0009908  46.0433 314.1629 15.40344373135553
LEMUR-2-CAEL            
1 58903U 24022E   26189.31438537  .00011966  00000+0  28531-3 0  9999
2 58903  97.4078  40.5408 0007902  33.0363 327.1376 15.41690753135592
LEMUR-2-JOHNNYTRUONG    
1 59146U 24043BA  26189.68505893  .00033181  00000+0  37828-3 0  9994
2 59146  97.5388 342.7481 0004329 112.0392 248.1325 15.62171037131397
LEMUR-2-TOMATOKECHUP    
1 60471U 24149D   26189.79751358  .00007447  00000+0  21141-3 0  9992
2 60471  97.3793 271.9051 0002997 133.9073 226.2419 15.36491942105484
LEMUR-2-STELLA          
1 60533U 24149BT  26189.72191083  .00008128  00000+0  47340-3 0  9993
2 60533  97.6728 272.2767 0001044 111.1578 248.9764 15.12280986103752
LEMUR-2-MARHISYAM       
1 60536U 24149BW  26189.77649013  .00008027  00000+0  47515-3 0  9994
2 60536  97.6875 272.8024 0002786  79.1951 280.9593 15.11695085103746
LEMUR-2-AHMED-ASRAR     
1 60576U 24149DN  26189.78945805  .00008275  00000+0  46957-3 0  9991
2 60576  97.6998 274.9929 0000655 245.3052 114.8111 15.13212854103837
LEMUR-2-LLOYD           
1 60577U 24149DP  26189.78580135  .00007484  00000+0  46856-3 0  9992
2 60577  97.6733 270.9309 0004812  86.7270 273.4510 15.09668416103650
LEMUR-2-SQUIRRELCOMM    
1 60578U 24149DQ  26189.03451372  .00003681  00000+0  24740-3 0  9994
2 60578  97.6707 269.8822 0004746 354.4134   5.7039 15.07397331103542
LEMUR-2-SIERRINI        
1 60579U 24149DR  26189.80423214  .00006643  00000+0  39680-3 0  9994
2 60579  97.6834 272.4977 0006506 107.2256 252.9686 15.11421398103720
LEMUR-2-WILSON          
1 62694U 25009CP  26189.44302668  .00001736  00000+0  16290-3 0  9999
2 62694  97.7023 267.5350 0002512   1.2947 358.8280 14.95263092 80539
LEMUR-2-STAR-FOX        
1 62696U 25009CR  26189.80144732  .00003741  00000+0  28409-3 0  9990
2 62696  97.6924 271.2563 0003127  64.7276 295.4272 15.02792322 80809
LEMUR-2-ARIANNA         
1 62699U 25009CU  26189.79991603  .00003955  00000+0  30009-3 0  9994
2 62699  97.6861 271.0121 0003448  70.2797 289.8800 15.02792285 80808
LEMUR-2-ALISIA          
1 62706U 25009DB  26189.77366538  .00006008  00000+0  44959-3 0  9995
2 62706  97.6958 271.7979 0003550 149.8372 210.3058 15.03110180103403
LEMUR-2-ROUNDTRIPPER    
1 62711U 25009DG  26189.78335350  .00006666  00000+0  48466-3 0  9997
2 62711  97.7229 272.4344 0004392  78.6143 281.5576 15.04158991 80878
LEMUR-2-MYNAMEISJEFF    
1 62712U 25009DH  26189.78180417  .00006624  00000+0  48178-3 0  9994
2 62712  97.7284 272.8265 0003615 112.1675 247.9935 15.04151412 80873
